satname,norad_id,inclination_deg,eccentricity,mean_motion_rev_per_day,perigee_km,apogee_km,l1,l2
STARLINK-1184,45098,53.054,0.0001909,15.08064031,540.7951563782481,543.4373090625013,1 45098U 20006BG  26021.51786820  .00006108  00000+0  40998-3 0  9999,2 45098  53.0540  98.1344 0001909   5.5055 354.5955 15.08064031329911
STARLINK-1193,45100,53.0684,0.0001123,15.39925267,445.5637169148986,447.0964922265848,1 45100U 20006BJ  26021.58335647  .01186874  00000+0  26678-1 0  9994,2 45100  53.0684  95.8956 0001123  69.8176 224.1478 15.39925267  5837
STARLINK-1143,45179,53.0506,0.0004043,15.52717451,406.05188750787147,411.5398014059001,1 45179U 20012B   26020.82142055  .00063093  00000+0  10037-2 0  9991,2 45179  53.0506 202.1757 0004043 162.7277 197.3870 15.52717451328460
STARLINK-1202,45183,53.1094,0.0001644,15.19351807,506.6663433369358,508.9304388935352,1 45183U 20012F   26021.58335647  .00999264  00000+0  43455-1 0  9998,2 45183  53.1094 257.7840 0001644  97.8845 337.3090 15.19351807  5835
STARLINK-1216,45185,53.1084,0.0001525,15.19013242,507.77127226863286,509.8717946213337,1 45185U 20012H   26021.58335647  .00896516  00000+0  39208-1 0  9997,2 45185  53.1084 257.7694 0001525 100.8036  21.7617 15.19013242  5789
STARLINK-1225,45187,53.0848,0.0001529,15.13849264,523.4188995949771,525.529718133228,1 45187U 20012K   26021.58335647  .01476948  00000+0  73671-1 0  9995,2 45187  53.0848 257.9866 0001529 119.6583 142.7966 15.13849264  5832
STARLINK-1230,45189,53.0836,0.0001686,15.13501911,524.3664227899262,526.6943394308373,1 45189U 20012M   26021.58335647  .01373529  00000+0  69634-1 0  9992,2 45189  53.0836 257.9913 0001686 121.1177 119.3705 15.13501911  5830
STARLINK-1234,45190,53.0477,0.0012782,15.5165246,403.22197877356757,420.5800319304499,1 45190U 20012N   26021.58335647  .00034839  00000+0  57966-3 0  9998,2 45190  53.0477 193.6717 0012782 149.1309 150.3236 15.51652460  5952
STARLINK-1269,45197,53.0923,0.0001813,15.15351011,518.6625098923241,521.1637428681497,1 45197U 20012V   26021.58335647  .01248463  00000+0  60574-1 0  9993,2 45197  53.0923 257.9163 0001813 122.2730  98.6487 15.15351011  5834
STARLINK-1154,45198,53.0514,0.0001715,15.38415477,449.6232018059909,451.96552526368396,1 45198U 20012W   26021.31603302  .00104963  00000+0  27022-2 0  9998,2 45198  53.0514 234.6991 0001715 108.1047 252.0142 15.38415477327986
STARLINK-1199,45201,53.0524,0.0001568,15.06407017,546.1041606456502,548.2759432091352,1 45201U 20012Z   26021.29638610  .00002658  00000+0  19721-3 0  9996,2 45201  53.0524 239.3713 0001568  67.3035 292.8120 15.06407017327978
STARLINK-1209,45206,53.0484,0.0014964,15.42824387,427.5788557896767,447.9775267741452,1 45206U 20012AE  26021.50366598  .00024582  00000+0  55794-3 0  9998,2 45206  53.0484 198.7389 0014964 140.6761 219.5333 15.42824387327616
STARLINK-1210,45207,53.0147,0.0006838,15.83240718,316.7019700071005,325.8640968448135,1 45207U 20012AF  26021.58335647  .00242795  00000+0  10728-2 0  9993,2 45207  53.0147 141.2590 0006838 317.0137  80.5328 15.83240718  6033
STARLINK-1231,45212,53.0457,0.000233,15.17374346,512.1738332645755,515.3854664234022,1 45212U 20012AL  26021.31029749  .00013904  00000+0  70192-3 0  9993,2 45212  53.0457 232.7239 0002330 129.4585 230.6615 15.17374346328029
STARLINK-1271,45217,53.054,0.0001453,15.06411951,546.168682263251,548.1811779101336,1 45217U 20012AR  26020.81721763  .00004475  00000+0  31900-3 0  9994,2 45217  53.0540 241.5259 0001453  91.3517 268.7638 15.06411951327909
STARLINK-1191,45222,53.1179,0.0001539,15.21560482,500.0743760121759,502.1918153476254,1 45222U 20012AW  26021.58335647  .00937746  00000+0  37957-1 0  9999,2 45222  53.1179 217.6653 0001539  94.3376 285.3225 15.21560482  5830
STARLINK-1212,45223,53.053,0.0002329,15.40378374,443.4026403816506,446.5808537520352,1 45223U 20012AX  26021.50571581  .00060377  00000+0  14702-2 0  9992,2 45223  53.0530 214.8475 0002329 115.9616 244.1628 15.40378374328349
STARLINK-1215,45225,53.1555,0.0001213,15.29336572,476.96269816610766,478.6259471049798,1 45225U 20012AZ  26021.58335647  .00053822  00000+0  18651-2 0  9997,2 45225  53.1555 217.0388 0001213 103.8203  42.3341 15.29336572  5833
STARLINK-1221,45227,53.0677,0.0003046,15.39949618,444.1794507424729,448.3368722748637,1 45227U 20012BB  26021.50159748  .00027362  00000+0  68404-3 0  9999,2 45227  53.0677 132.9060 0003046 201.5294 158.5583 15.39949618329438
STARLINK-1222,45228,53.0547,0.0001357,15.45871142,427.895891899102,429.7432999192306,1 45228U 20012BC  26021.58335647  .00033419  00000+0  68289-3 0  9993,2 45228  53.0547 208.0356 0001357 126.8029  85.5436 15.45871142  5931
STARLINK-1226,45229,53.1273,0.0001296,15.23515414,494.3561889717357,496.1377700992298,1 45229U 20012BD  26021.58335647  .01696119  00000+0  63243-1 0  9990,2 45229  53.1273 217.5361 0001296  98.5557 151.5528 15.23515414  5831
STARLINK-1227,45230,53.1108,0.0002201,15.19803047,504.9200415021969,507.9506302444479,1 45230U 20012BE  26021.58335647  .01040922  00000+0  44546-1 0  9992,2 45230  53.1108 217.6287 0002201 110.8832 108.3569 15.19803047  5729
STARLINK-1246,45235,53.1079,0.0001992,15.19182517,506.9381572115035,509.6817176713794,1 45235U 20012BK  26021.58335647  .00098702  00000+0  45868-2 0  9994,2 45235  53.1079 257.5874 0001992  95.2297  68.3957 15.19182517  5732
STARLINK-1270,45237,53.0497,0.0003878,15.39591623,444.6691091316816,449.96293049384803,1 45237U 20012BM  26021.49689147  .00046335  00000+0  11621-2 0  9998,2 45237  53.0497 211.6720 0003878 134.4264 225.7057 15.39591623328386
STARLINK-1279,45360,53.0501,0.0007522,15.47713382,418.3008573985726,428.53311521557316,1 45360U 20019A   26021.25315486  .00159207  00000+0  29712-2 0  9991,2 45360  53.0501 327.2022 0007522  53.6843 306.4858 15.47713382323303
STARLINK-1301,45361,53.0485,0.0009659,15.53419368,400.1977035310683,413.30475060812023,1 45361U 20019B   26021.58335647  .00047292  00000+0  73571-3 0  9992,2 45361  53.0485 333.2619 0009659  46.3897 162.3633 15.53419368  5957
STARLINK-1262,45366,53.0563,0.0001507,15.06366087,546.2718326573868,548.3591640403893,1 45366U 20019G   26021.25400787 -.00008395  00000+0 -54584-3 0  9995,2 45366  53.0563  19.5635 0001507  86.6146 273.5016 15.06366087322587
STARLINK-1273,45367,53.0557,0.00011,15.19834865,505.58195669300585,507.09654146780485,1 45367U 20019H   26021.58335647  .01908552  00000+0  79588-1 0  9996,2 45367  53.0557  17.2715 0001100  68.9379 220.1140 15.19834865  5835
STARLINK-1276,45368,53.0556,0.0001233,15.06383884,546.4070500300741,548.1148531649387,1 45368U 20019J   26021.31299072 -.00002104  00000+0 -12247-3 0  9999,2 45368  53.0556  19.3022 0001233  84.5598 275.5531 15.06383884322592
STARLINK-1277,45369,53.0544,0.0001511,15.37915981,451.2408432663342,453.3049931436153,1 45369U 20019K   26021.58335647  .00062994  00000+0  16615-2 0  9991,2 45369  53.0544  16.8544 0001511  72.7015 228.3769 15.37915981  5830
STARLINK-1281,45370,53.0535,0.0001247,15.06367221,546.4484191808579,548.1756261671117,1 45370U 20019L   26021.36827220 -.00010601  00000+0 -69445-3 0  9992,2 45370  53.0535  19.0504 0001247  88.1936 271.9196 15.06367221322601
STARLINK-1300,45374,53.0552,0.0001404,15.06387219,546.2784057021281,548.2230545767516,1 45374U 20019Q   26021.39039432 -.00001573  00000+0 -86769-4 0  9996,2 45374  53.0552  18.9527 0001404 100.4524 259.6624 15.06387219322601
STARLINK-1302,45375,53.0552,0.0001614,15.31190728,471.15287547203934,473.36418314890125,1 45375U 20019R   26021.29007107  .00017256  00000+0  57550-3 0  9998,2 45375  53.0552  17.4908 0001614  88.9867 271.1318 15.31190728322617
STARLINK-1304,45376,53.0559,0.0003096,15.40621774,442.16086094257753,446.38529726355864,1 45376U 20019S   26021.27097277  .00032167  00000+0  78438-3 0  9990,2 45376  53.0559  15.0585 0003096  61.0624 299.0690 15.40621774322644
STARLINK-1305,45377,53.0505,0.0005627,15.44300608,429.6010017190056,437.2667435790845,1 45377U 20019T   26021.20257817  .00041523  00000+0  89153-3 0  9994,2 45377  53.0505 359.5697 0005627  11.6491 348.4643 15.44300608322866
STARLINK-1319,45379,53.0515,0.0005742,15.49147269,415.31629519514536,423.1223792127894,1 45379U 20019V   26021.58335647  .00022372  00000+0  41127-3 0  9995,2 45379  53.0515 357.5337 0005742  22.6447  75.6941 15.49147269  5684
STARLINK-1266,45383,53.054,0.0001217,15.35257544,459.32340497778296,460.9878454027539,1 45383U 20019Z   26021.58335647  .00079676  00000+0  22811-2 0  9997,2 45383  53.0540 356.3323 0001217  98.4557 121.6563 15.35257544  5837
STARLINK-1267,45384,53.055,0.0006894,15.41224238,437.7929010901162,447.19718855351584,1 45384U 20019AA  26021.58335647 -.00003867  00000+0 -81874-4 0  9995,2 45384  53.0550 351.4944 0006894  64.4508 166.8946 15.41224238  5858
STARLINK-1272,45386,53.0501,0.000639,15.46671851,422.12195045754925,430.81823832418104,1 45386U 20019AC  26021.58335647  .00029657  00000+0  59053-3 0  9993,2 45386  53.0501 336.3409 0006390  31.5780 353.5896 15.46671851  5943
STARLINK-1274,45387,53.0343,0.001053,15.40497197,437.45649902065907,451.8252692446413,1 45387U 20019AD  26020.87856373  .00178178  00000+0  42303-2 0  9991,2 45387  53.0343 330.3032 0010530  76.7402 283.4775 15.40497197323232
STARLINK-1280,45388,53.0504,0.0007221,15.54728754,398.04460606389057,407.8378392330387,1 45388U 20019AE  26021.44721983  .00122999  00000+0  17975-2 0  9991,2 45388  53.0504 352.7685 0007221  22.0985 338.0335 15.54728754322966
STARLINK-1283,45389,53.0518,0.0011933,15.46403424,419.13663020760396,435.3783847391387,1 45389U 20019AF  26021.30154582  .00167084  00000+0  32541-2 0  9992,2 45389  53.0518 337.8214 0011933  61.7803 298.4406 15.46403424323175
STARLINK-1284,45390,53.0555,0.0001764,15.38882516,448.2082284782018,450.6169879799845,1 45390U 20019AG  26021.58335647  .01431521  00000+0  33210-1 0  9991,2 45390  53.0555 356.1097 0001764  72.0387 242.0484 15.38882516  5839
